NORAD_CAT_ID,OBJECT_NAME,OBJECT_TYPE,EPOCH,MEAN_MOTION,ECCENTRICITY,INCLINATION,RA_OF_ASC_NODE,ARG_OF_PERICENTER,MEAN_ANOMALY,BSTAR,MEAN_MOTION_DOT,MEAN_MOTION_DDOT,TLE_LINE0,TLE_LINE1,TLE_LINE2,SEMIMAJOR_AXIS,PERIOD,APOGEE,PERIGEE,DECAYED
49425.0,STARLINK-3139,PAYLOAD,2022-03-03 06:00:00,15.08824267,0.0001811,53.2185,336.7027,48.5386,263.8418,0.0015638,0.00024677,0.0,0 STARLINK-3139,1 49425U 21104T   22062.25001157  .00024677  00000-0  15638-2 0  9996,2 49425  53.2185 336.7027 0001811  48.5386 263.8418 15.08824267 18175,6917.928000000001,95.439,541.0459999999998,538.5409999999998,0.0
49425.0,STARLINK-3139,PAYLOAD,2022-03-03 14:00:01,15.08825414,0.0001662,53.2184,335.2047,55.9883,267.9845,0.00063319,9.8e-05,0.0,0 STARLINK-3139,1 49425U 21104T   22062.58334491  .00009800  00000-0  63319-3 0  9993,2 49425  53.2184 335.2047 0001662  55.9883 267.9845 15.08825414  3592,6917.925,95.438,540.94,538.64,0.0
49425.0,STARLINK-3139,PAYLOAD,2022-03-03 18:00:00,15.0883914,0.0001735,53.2186,334.4565,59.5574,90.2003,-0.0015577,-0.00024993,0.0,0 STARLINK-3139,1 49425U 21104T   22062.75001157 -.00024993  00000-0 -15577-2 0  9996,2 49425  53.2186 334.4565 0001735  59.5574  90.2003 15.08839140 18251,6917.8830000000025,95.438,540.948,538.548,0.0
49425.0,STARLINK-3139,PAYLOAD,2022-03-04 14:00:01,15.08799905,0.0001783,53.2176,330.7159,60.0329,298.7326,0.0030666,0.00048802,0.0,0 STARLINK-3139,1 49425U 21104T   22063.58335648  .00048802  00000-0  30666-2 0  9992,2 49425  53.2176 330.7159 0001783  60.0329 298.7326 15.08799905 18376,6918.003000000002,95.44,541.101,538.634,0.0
49425.0,STARLINK-3139,PAYLOAD,2022-03-04 22:00:00,15.08848546,0.0001899,53.2177,329.2208,58.7247,311.5487,-0.0014332,-0.00023031,0.0,0 STARLINK-3139,1 49425U 21104T   22063.91667824 -.00023031  00000-0 -14332-2 0  9994,2 49425  53.2177 329.2208 0001899  58.7247 311.5487 15.08848546  3592,6917.854,95.437,541.033,538.406,0.0
49425.0,STARLINK-3139,PAYLOAD,2022-03-05 06:00:00,15.08837686,0.0001957,53.217,327.725,53.9658,327.9053,0.0015046,0.00023737,0.0,0 STARLINK-3139,1 49425U 21104T   22064.25001157  .00023737  00000-0  15046-2 0  9997,2 49425  53.2170 327.7250 0001957  53.9658 327.9053 15.08837686 18480,6917.887,95.438,541.106,538.399,0.0
49425.0,STARLINK-3139,PAYLOAD,2022-03-05 14:00:01,15.08832153,0.0001803,53.217,326.2269,60.8804,332.6007,0.0025559,0.00040615,0.0,0 STARLINK-3139,1 49425U 21104T   22064.58334491  .00040615  00000-0  25559-2 0  9997,2 49425  53.2170 326.2269 0001803  60.8804 332.6007 15.08832153  3585,6917.904,95.438,541.0169999999998,538.5219999999998,0.0
49425.0,STARLINK-3139,PAYLOAD,2022-03-05 22:00:01,15.08863935,0.0001897,53.2171,324.7317,58.1742,346.97900000000016,-0.0028197,-0.00044914,0.0,0 STARLINK-3139,1 49425U 21104T   22064.91668981 -.00044914  00000-0 -28197-2 0  9997,2 49425  53.2171 324.7317 0001897  58.1742 346.9790 15.08863935 18582,6917.807,95.436,540.985,538.36,0.0
49425.0,STARLINK-3139,PAYLOAD,2022-03-06 06:00:00,15.08857497,0.0001891,53.2168,323.2356,51.8511,4.8492,-0.00039367,-6.551e-05,0.0,0 STARLINK-3139,1 49425U 21104T   22065.25001157 -.00006551  00000-0 -39367-3 0  9998,2 49425  53.2168 323.2356 0001891  51.8511   4.8492 15.08857497 18634,6917.8269999999975,95.436,541.0,538.384,0.0
49425.0,STARLINK-3139,PAYLOAD,2022-03-06 14:00:01,15.08816009,0.0001714,53.217,321.7374,58.1776,10.1507,0.0034379,0.00054816,0.0,0 STARLINK-3139,1 49425U 21104T   22065.58334491  .00054816  00000-0  34379-2 0  9996,2 49425  53.2170 321.7374 0001714  58.1776  10.1507 15.08816009  3575,6917.954000000002,95.439,541.004,538.633,0.0
49425.0,STARLINK-3139,PAYLOAD,2022-03-06 22:00:00,15.08873023,0.0001828,53.217,320.2423,54.8236,25.0908,-0.0028314,-0.00045109,0.0,0 STARLINK-3139,1 49425U 21104T   22065.91667824 -.00045109  00000-0 -28314-2 0  9991,2 49425  53.2170 320.2423 0001828  54.8236  25.0908 15.08873023  3607,6917.779,95.435,540.909,538.38,0.0
49425.0,STARLINK-3139,PAYLOAD,2022-03-07 12:00:00,15.08801398,0.0001584,53.2173,317.6225,53.5309,316.6982,0.0020951,0.00033178,0.0,0 STARLINK-3139,1 49425U 21104T   22066.50001157  .00033178  00000-0  20951-2 0  9998,2 49425  53.2173 317.6225 0001584  53.5309 316.6982 15.08801398 18823,6917.998000000001,95.44,540.9590000000002,538.768,0.0
49425.0,STARLINK-3139,PAYLOAD,2022-03-07 22:00:00,15.08813978,0.00017,53.2174,315.7531,49.6051,65.0592,-0.0023469,-0.00037419,0.0,0 STARLINK-3139,1 49425U 21104T   22066.91667824 -.00037419  00000-0 -23469-2 0  9993,2 49425  53.2174 315.7531 0001700  49.6051  65.0592 15.08813978 18888,6917.96,95.439,541.001,538.649,0.0
49425.0,STARLINK-3139,PAYLOAD,2022-03-08 14:00:01,15.08787051,0.000158,53.2176,312.7589,52.8242,84.9384,0.0029697,0.00047223,0.0,0 STARLINK-3139,1 49425U 21104T   22067.58334491  .00047223  00000-0  29697-2 0  9999,2 49425  53.2176 312.7589 0001580  52.8242  84.9384 15.08787051 18986,6918.042,95.441,541.0,538.814,0.0
49425.0,STARLINK-3139,PAYLOAD,2022-03-08 22:00:00,15.08822405,0.0001737,53.2177,311.2641,49.7321,99.5829,-0.00081558,-0.00013238,0.0,0 STARLINK-3139,1 49425U 21104T   22067.91667824 -.00013238  00000-0 -81558-3 0  9991,2 49425  53.2177 311.2641 0001737  49.7321  99.5829 15.08822405  3597,6917.934,95.439,541.001,538.5980000000002,0.0
49425.0,STARLINK-3139,PAYLOAD,2022-03-09 06:00:00,15.08831842,0.0001751,53.2176,309.7678,47.592,113.2871,-0.00041727,-6.921e-05,0.0,0 STARLINK-3139,1 49425U 21104T   22068.25001157 -.00006921  00000-0 -41727-3 0  9995,2 49425  53.2176 309.7678 0001751  47.5920 113.2871 15.08831842 19082,6917.905,95.438,540.982,538.559,0.0
49425.0,STARLINK-3139,PAYLOAD,2022-03-09 14:00:01,15.08811493,0.00016,53.2177,308.2699,54.7159,117.7435,0.0026644,0.00042338,0.0,0 STARLINK-3139,1 49425U 21104T   22068.58334491  .00042338  00000-0  26644-2 0  9991,2 49425  53.2177 308.2699 0001600  54.7159 117.7435 15.08811493  3614,6917.968000000003,95.439,540.939,538.726,0.0
49425.0,STARLINK-3139,PAYLOAD,2022-03-09 22:00:01,15.08839589,0.000176,53.2178,306.7752,50.8054,133.2956,-0.00068975,-0.00011249,0.0,0 STARLINK-3139,1 49425U 21104T   22068.91668981 -.00011249  00000-0 -68975-3 0  9995,2 49425  53.2178 306.7752 0001760  50.8054 133.2956 15.08839589  3590,6917.882,95.438,540.964,538.529,0.0
49425.0,STARLINK-3139,PAYLOAD,2022-03-10 06:00:00,15.08852321,0.0001748,53.2175,305.2786,49.56399999999999,146.0577,-0.0010994,-0.00017748,0.0,0 STARLINK-3139,1 49425U 21104T   22069.25001157 -.00017748  00000-0 -10994-2 0  9996,2 49425  53.2175 305.2786 0001748  49.5640 146.0577 15.08852321 19238,6917.843000000003,95.437,540.9169999999998,538.498,0.0
49425.0,STARLINK-3139,PAYLOAD,2022-03-10 14:00:01,15.088312099999998,0.0001616,53.2177,303.7809,56.935,150.2907,0.0023924,0.00037983,0.0,0 STARLINK-3139,1 49425U 21104T   22069.58334491  .00037983  00000-0  23924-2 0  9990,2 49425  53.2177 303.7809 0001616  56.9350 150.2907 15.08831210  3560,6917.906999999997,95.438,540.89,538.654,0.0
49425.0,STARLINK-3139,PAYLOAD,2022-03-10 20:00:01,15.08864612,0.0001715,53.2177,302.66,54.0359,71.8861,-0.0015741,-0.0002527,0.0,0 STARLINK-3139,1 49425U 21104T   22069.83334491 -.00025270  00000-0 -15741-2 0  9994,2 49425  53.2177 302.6600 0001715  54.0359  71.8861 15.08864612 19325,6917.805,95.436,540.857,538.484,0.0
49425.0,STARLINK-3139,PAYLOAD,2022-03-10 22:00:01,15.0885399,0.0001771999999999,53.2176,302.2863,52.3425,166.5493,-0.00045409,-7.511e-05,0.0,0 STARLINK-3139,1 49425U 21104T   22069.91668981 -.00007511  00000-0 -45409-3 0  9990,2 49425  53.2176 302.2863 0001772  52.3425 166.5493 15.08853990  3591,6917.8380000000025,95.437,540.928,538.477,0.0
49425.0,STARLINK-3139,PAYLOAD,2022-03-11 12:00:00,15.08857117,0.0001657,53.2171,299.6661,58.0185,91.147,0.00042805,6.534e-05,0.0,0 STARLINK-3139,1 49425U 21104T   22070.50001157  .00006534  00000-0  42805-3 0  9992,2 49425  53.2171 299.6661 0001657  58.0185  91.1470 15.08857117 19421,6917.828,95.436,540.839,538.547,0.0
49425.0,STARLINK-3139,PAYLOAD,2022-03-11 14:00:01,15.08864533,0.0001681,53.2172,299.2919,60.3486,181.7194,-0.00054618,-8.976e-05,0.0,0 STARLINK-3139,1 49425U 21104T   22070.58334491 -.00008976  00000-0 -54618-3 0  9999,2 49425  53.2172 299.2919 0001681  60.3486 181.7194 15.08864533  3579,6917.805,95.436,540.8330000000002,538.508,0.0
49425.0,STARLINK-3139,PAYLOAD,2022-03-11 22:00:00,15.08849768,0.0001888,53.2171,297.7973,55.9286,197.768,0.00013884,1.923e-05,0.0,0 STARLINK-3139,1 49425U 21104T   22070.91667824  .00001923  00000-0  13884-3 0  9998,2 49425  53.2171 297.7973 0001888  55.9286 197.7680 15.08849768  3589,6917.851,95.437,541.0219999999998,538.409,0.0
49425.0,STARLINK-3139,PAYLOAD,2022-03-12 14:00:01,15.08835195,0.0001648,53.2167,294.8029,60.404,216.4925,0.002007,0.00031794,0.0,0 STARLINK-3139,1 49425U 21104T   22071.58334491  .00031794  00000-0  20070-2 0  9996,2 49425  53.2167 294.8029 0001648  60.4040 216.4925 15.08835195 19584,6917.895,95.438,540.9,538.62,0.0
49425.0,STARLINK-3139,PAYLOAD,2022-03-12 22:00:00,15.08835184,0.0001779,53.2166,293.3085,52.9734,235.5207,-0.0014759,-0.00023697,0.0,0 STARLINK-3139,1 49425U 21104T   22071.91667824 -.00023697  00000-0 -14759-2 0  9994,2 49425  53.2166 293.3085 0001779  52.9734 235.5207 15.08835184 19639,6917.895,95.438,540.991,538.529,0.0
49425.0,STARLINK-3139,PAYLOAD,2022-03-13 14:00:01,15.08819678,0.000165,53.2164,290.314,58.8102,252.8355,0.002023,0.00032037,0.0,0 STARLINK-3139,1 49425U 21104T   22072.58334491  .00032037  00000-0  20230-2 0  9996,2 49425  53.2164 290.3140 0001650  58.8102 252.8355 15.08819678 19735,6917.943,95.439,540.9490000000002,538.6659999999998,0.0
49425.0,STARLINK-3139,PAYLOAD,2022-03-13 22:00:01,15.08828395,0.000184,53.2164,288.8195,52.6297,270.6643,0.00043718,6.674e-05,0.0,0 STARLINK-3139,1 49425U 21104T   22072.91668981  .00006674  00000-0  43718-3 0  9992,2 49425  53.2164 288.8195 0001840  52.6297 270.6643 15.08828395  3596,6917.916,95.438,541.054,538.508,0.0
